{
  "norad_id": 67645,
  "name": "STARLINK-36619",
  "history": [
    {
      "epoch": "2026-05-04T15:17:38.988384Z",
      "apogee_km": 483.96177869621897,
      "perigee_km": 482.00361513471944,
      "latitude_deg": 2.3955719352311456e-05,
      "longitude_deg": 91.5590400947063,
      "height_km": 483.05282048164554,
      "semi_major_axis_km": 6861.119696915469,
      "eccentricity": 0.0001427,
      "inclination_deg": 42.9992,
      "raan_deg": 183.4952,
      "arg_perigee_deg": 252.5507,
      "mean_anomaly_deg": 107.5189,
      "mean_motion_rev_day": 15.27602175
    },
    {
      "epoch": "2026-05-05T14:49:59.864736Z",
      "apogee_km": 483.738662788046,
      "perigee_km": 482.27723891351525,
      "latitude_deg": -1.3521313965359255e-05,
      "longitude_deg": 91.96609383333946,
      "height_km": 483.1413274940497,
      "semi_major_axis_km": 6861.14495085078,
      "eccentricity": 0.0001065,
      "inclination_deg": 42.9993,
      "raan_deg": 177.956,
      "arg_perigee_deg": 240.735,
      "mean_anomaly_deg": 119.3395,
      "mean_motion_rev_day": 15.27593741
    },
    {
      "epoch": "2026-05-06T14:22:20.958816Z",
      "apogee_km": 484.07128623874996,
      "perigee_km": 482.00332830253865,
      "latitude_deg": 4.8381565541929113e-05,
      "longitude_deg": 92.37414379472878,
      "height_km": 482.8817310860472,
      "semi_major_axis_km": 6861.174307270644,
      "eccentricity": 0.0001507,
      "inclination_deg": 43.0003,
      "raan_deg": 172.4186,
      "arg_perigee_deg": 266.2504,
      "mean_anomaly_deg": 93.8176,
      "mean_motion_rev_day": 15.27583937
    }
  ]
}